{
    "links": {
        "self": "http://www.neowsapp.com/rest/v1/neo/3785694?api_key=iIulBulltgU6a56xZRHN4H3l9WmuAYTsLGpBGhQ2"
    },
    "id": "3785694",
    "neo_reference_id": "3785694",
    "name": "(2017 TN2)",
    "designation": "2017 TN2",
    "nasa_jpl_url": "http://ssd.jpl.nasa.gov/sbdb.cgi?sstr=3785694",
    "absolute_magnitude_h": 22.4,
    "estimated_diameter": {
        "kilometers": {
            "estimated_diameter_min": 0.0880146521,
            "estimated_diameter_max": 0.1968067451
        },
        "meters": {
            "estimated_diameter_min": 88.0146520901,
            "estimated_diameter_max": 196.8067450894
        },
        "miles": {
            "estimated_diameter_min": 0.0546897524,
            "estimated_diameter_max": 0.122290004
        },
        "feet": {
            "estimated_diameter_min": 288.7619911632,
            "estimated_diameter_max": 645.6914415591
        }
    },
    "is_potentially_hazardous_asteroid": false,
    "close_approach_data": [
        {
            "close_approach_date": "2015-09-08",
            "close_approach_date_full": "2015-Sep-08 10:45",
            "epoch_date_close_approach": 1441709100000,
            "relative_velocity": {
                "kilometers_per_second": "20.6079526826",
                "kilometers_per_hour": "74188.6296573913",
                "miles_per_hour": "46097.9293557274"
            },
            "miss_distance": {
                "astronomical": "0.0800814246",
                "lunar": "31.1516741694",
                "kilometers": "11980010.546725602",
                "miles": "7444033.3693212276"
            },
            "orbiting_body": "Merc"
        },
        {
            "close_approach_date": "2015-10-19",
            "close_approach_date_full": "2015-Oct-19 18:45",
            "epoch_date_close_approach": 1445280300000,
            "relative_velocity": {
                "kilometers_per_second": "33.6036370183",
                "kilometers_per_hour": "120973.0932657094",
                "miles_per_hour": "75167.9756461292"
            },
            "miss_distance": {
                "astronomical": "0.3780025318",
                "lunar": "147.0429848702",
                "kilometers": "56548373.611887266",
                "miles": "35137530.0135096308"
            },
            "orbiting_body": "Earth"
        },
        {
            "close_approach_date": "2017-09-29",
            "close_approach_date_full": "2017-Sep-29 11:25",
            "epoch_date_close_approach": 1506684300000,
            "relative_velocity": {
                "kilometers_per_second": "20.7346284773",
                "kilometers_per_hour": "74644.6625182782",
                "miles_per_hour": "46381.2904408713"
            },
            "miss_distance": {
                "astronomical": "0.0570245714",
                "lunar": "22.1825582746",
                "kilometers": "8530754.419102918",
                "miles": "5300764.9962915484"
            },
            "orbiting_body": "Earth"
        },
        {
            "close_approach_date": "2054-02-22",
            "close_approach_date_full": "2054-Feb-22 17:15",
            "epoch_date_close_approach": 2655393300000,
            "relative_velocity": {
                "kilometers_per_second": "27.9005026739",
                "kilometers_per_hour": "100441.8096260285",
                "miles_per_hour": "62410.6344312398"
            },
            "miss_distance": {
                "astronomical": "0.2046392628",
                "lunar": "79.6046732292",
                "kilometers": "30613597.833250236",
                "miles": "19022407.6128198168"
            },
            "orbiting_body": "Earth"
        },
        {
            "close_approach_date": "2073-09-22",
            "close_approach_date_full": "2073-Sep-22 17:31",
            "epoch_date_close_approach": 3273327060000,
            "relative_velocity": {
                "kilometers_per_second": "16.6920980848",
                "kilometers_per_hour": "60091.5531054272",
                "miles_per_hour": "37338.5542059806"
            },
            "miss_distance": {
                "astronomical": "0.1876993254",
                "lunar": "73.0150375806",
                "kilometers": "28079419.280276898",
                "miles": "17447742.0782132724"
            },
            "orbiting_body": "Earth"
        }
    ],
    "orbital_data": {
        "orbit_id": "7",
        "orbit_determination_date": "2017-10-25 06:21:16",
        "first_observation_date": "2017-10-10",
        "last_observation_date": "2017-10-24",
        "data_arc_in_days": 14,
        "observations_used": 68,
        "orbit_uncertainty": "8",
        "minimum_orbit_intersection": ".0298336",
        "jupiter_tisserand_invariant": "4.157",
        "epoch_osculation": "2458042.5",
        "eccentricity": ".6756265590124695",
        "semi_major_axis": "1.549916699496799",
        "inclination": "6.539004123377877",
        "ascending_node_longitude": "23.49893802527542",
        "orbital_period": "704.7919958143555",
        "perihelion_distance": ".5027518130598131",
        "perihelion_argument": "241.148671988289",
        "aphelion_distance": "2.597081585933785",
        "perihelion_time": "2457975.397914870504",
        "mean_anomaly": "34.27500708021878",
        "mean_motion": ".5107890017735462",
        "equinox": "J2000",
        "orbit_class": {
            "orbit_class_type": "APO",
            "orbit_class_description": "Near-Earth asteroid orbits which cross the Earth’s orbit similar to that of 1862 Apollo",
            "orbit_class_range": "a (semi-major axis) > 1.0 AU; q (perihelion) < 1.017 AU"
        }
    },
    "is_sentry_object": false
}